[Satellite]
VERSION=1.1
NAME=SWIFT
NICKNAME=SWIFT
TLE1=1 28485U 04047A   15052.92167595  .00003633  00000-0  24419-3 0  9997
TLE2=2 28485  20.5568 282.2057 0011775   4.1305 355.9224 15.00912962560731
